#aV2024  7 13  0  0  0.00000000     288 DD+AD WGS84 FIT  NGA
## 2322 518400.00000000   300.00000000 60504 0.0000000000000
+   31     2  3  4  5  6  7  8  9 10 11 12 13 14 15 16 17 18
+         19 20 21 22 23 24 25 26 27 28 29 30 31 32  0  0  0
+          0  0  0  0  0  0  0  0  0  0  0  0  0  0  0  0  0
+          0  0  0  0  0  0  0  0  0  0  0  0  0  0  0  0  0
+          0  0  0  0  0  0  0  0  0  0  0  0  0  0  0  0  0
++         2  2  2  2  2  2  2  2  2  2  2  2  2  2  2  2  2
++         2  2  2  2  2  2  2  2  2  2  2  2  2  2  0  0  0
++         0  0  0  0  0  0  0  0  0  0  0  0  0  0  0  0  0
++         0  0  0  0  0  0  0  0  0  0  0  0  0  0  0  0  0
++         0  0  0  0  0  0  0  0  0  0  0  0  0  0  0  0  0
%c cc cc ccc ccc cccc cccc cccc cccc ccccc ccccc ccccc ccccc
%c cc cc ccc ccc cccc cccc cccc cccc ccccc ccccc ccccc ccccc
%f  0.0000000  0.000000000  0.00000000000  0.000000000000000
%f  0.0000000  0.000000000  0.00000000000  0.000000000000000
%i    0    0    0    0      0      0      0      0         0
%i    0    0    0    0      0      0      0      0         0
/*      NGA, ST. LOUIS,MO.                                  
/*   EPHEMERIS COMPUTED FROM 2 DAYS OF DATA                 
/*   EPOCHA v9 SMOOTHER                                     
/*   G2296 IERS2010 SATIGS SATAPC                           
*  2024  7 13  0 10  0.00000000
P  2 -18708.983774  -7130.473425  18078.322636   -400.185554                    
V  2 -10110.559736 -19441.781046 -18324.144119      0.073345                    
P  3 -18596.455485   6460.422458  17608.470182    455.445415                    
V  3  11717.100586 -19457.256975  19448.245971      0.165145                    
P  4 -26445.885650   -739.807821  -3072.020523    402.546517                    
V  4  -3606.307706  -2936.489194  31454.359378      0.077994                    
P  5  11742.783027   9566.816915 -21996.923836   -179.540001                    
V  5 -14520.777851  23308.767306   2484.253706     -0.013099                    
P  6   3468.172753  24051.479625  10652.238329    165.067537                    
V  6  -7235.233241 -11449.826987  28471.002570     -0.226760                    
P  7 -10928.079873  11460.094847 -20733.421531    -71.226679                    
V  7 -12901.870759 -24489.730906  -7025.669045      0.078549                    
P  8 -24598.466725  -6796.143286  -8224.577633    271.740976                    
V  8  10273.423128  -2090.300939 -28974.242031      0.163814                    
P  9 -21278.483490   8492.345024 -13567.542446    270.847431                    
V  9 -16944.224823  -3011.971304  24792.127446      0.150399                    
P 10   9009.074729 -23343.264594   8605.828229    -64.673595                    
V 10   7774.162149  -7656.263969 -29935.767911     -0.096084                    
P 11  12260.011300  23400.951093  -3029.058140   -703.710652                    
V 11   -854.464590   4568.452825  31525.019175     -0.069218                    
P 12  18545.479535  -2701.151461  18522.149558   -521.779477                    
V 12 -13691.823870  19910.675240  16413.608993     -0.031003                    
P 13  18354.448499  13695.999202 -13868.808462    664.158532                    
V 13 -17102.587829  -2004.342042 -24769.190836      0.024844                    
P 14 -12245.567809  22967.512420   4709.098370    447.401307                    
V 14  -6255.138099   2878.463784 -30781.821291      0.089320                    
P 15  25046.076169   4294.628583  -8550.534966    180.433988                    
V 15  -9879.904478   3857.732785 -28530.984754      0.042498                    
P 16  -8393.264654 -13503.322003 -21545.105984   -238.365859                    
V 16  17393.048967 -20206.976482   6421.194315      0.106140                    
P 17  -8405.182886  13801.237746  21527.202802    678.674164                    
V 17 -26004.626062  -3988.361593  -7588.262729     -0.074428                    
P 18  10243.082606 -12179.078112 -21213.559762   -635.862777                    
V 18  11935.652492  24194.857718  -8324.675384     -0.040944                    
P 19   2248.638611  15387.603112  21413.001288    509.594101                    
V 19 -27129.145814  -4565.414144   5682.841812      0.054040                    
P 20   5707.307830  18619.481779 -18062.221866    372.828365                    
V 20 -10846.404318  20379.526558  17370.032483     -0.004106                    
P 21 -19330.694158 -12839.308721  14232.918141    109.323950                    
V 21  -7621.545658 -15201.483938 -23796.790918     -0.025019                    
P 22  -6981.345442  22599.224319  12788.919942    -38.854076                    
V 22 -11334.210836  10705.003767 -25670.286960     -0.045714                    
P 23  16117.202991 -20645.471812  -3639.659399    272.371447                    
V 23   -529.713234   5206.709897 -31866.275344      0.089282                    
P 24  19225.184172   9437.325216  15536.970693   -482.841145                    
V 24   8619.168953  18661.122794 -21005.989823     -0.016810                    
P 25  19082.739062 -13569.898201  11951.225023    498.451082                    
V 25  -6217.820237  14835.151618  26299.407590      0.003838                    
P 26    547.506472 -22372.145612 -14170.862560    121.009499                    
V 26  11492.264203 -14140.318553  23386.234854     -0.068582                    
P 27 -16526.139032 -12868.448617 -16866.729059    -30.967059                    
V 27  20750.298682    -97.376220 -20199.469433     -0.009347                    
P 28  -2358.365449 -23311.326868  12498.860196   -328.739546                    
V 28   9414.200685  13002.572889  26006.827186     -0.159467                    
P 29  23817.601142  -4160.631852 -11183.163455   -589.830380                    
V 29  13608.180181   4109.542491  27451.222289      0.019237                    
P 30  -3041.062910  20770.887644 -15961.298498   -358.815566                    
V 30 -11368.411578 -17530.029497 -20717.618284      0.064854                    
P 31  -9949.321655 -24336.397317   1490.871072   -226.807296                    
V 31   3977.267411    577.777268  31783.593534      0.002828                    
P 32   5280.867140 -14757.311447  21633.590241   -612.460556                    
V 32  26899.783685   2228.494303  -5291.782755      0.019240                    
EOF
